$$SOE
2459580.500000000, A.D. 2022-Jan-01 00:00:00.0000, 3.330306338698903E+08, -3.041145280708804E+07, -7.569095975956941E+06,
2459587.500000000, A.D. 2022-Jan-08 00:00:00.0000, 3.331335949808901E+08, -1.790289358308293E+07, -6.278971350050044E+06,
2459594.500000000, A.D. 2022-Jan-15 00:00:00.0000, 3.328014361712202E+08, -5.371087081004446E+06, -4.980648284535246E+06,
2459601.500000000, A.D. 2022-Jan-22 00:00:00.0000, 3.320314833767490E+08, 7.167645107247638E+06, -3.675777452676558E+06,
2459608.500000000, A.D. 2022-Jan-29 00:00:00.0000, 3.308217727582300E+08, 1.969674365232818E+07, -2.366043646935367E+06,
2459615.500000000, A.D. 2022-Feb-05 00:00:00.0000, 3.291710708274621E+08, 3.219944717842771E+07, -1.053162169564834E+06,
2459622.500000000, A.D. 2022-Feb-12 00:00:00.0000, 3.270788945042231E+08, 4.465882902389248E+07, 2.611247418860234E+05,
2459629.500000000, A.D. 2022-Feb-19 00:00:00.0000, 3.245455295464851E+08, 5.705783728582682E+07, 1.575051756008502E+06,
2459636.500000000, A.D. 2022-Feb-26 00:00:00.0000, 3.215720458264080E+08, 6.937933724366467E+07, 2.886834601041950E+06,
2459643.500000000, A.D. 2022-Mar-05 00:00:00.0000, 3.181603094109743E+08, 8.160615533585839E+07, 4.194674446357947E+06,
2459650.500000000, A.D. 2022-Mar-12 00:00:00.0000, 3.143129914868247E+08, 9.372112439047581E+07, 5.496762464287147E+06,
2459657.500000000, A.D. 2022-Mar-19 00:00:00.0000, 3.100335740398942E+08, 1.057071298819281E+08, 6.791284543514147E+06,
2459664.500000000, A.D. 2022-Mar-26 00:00:00.0000, 3.053263521770202E+08, 1.175471569322472E+08, 8.076426124592140E+06,
2459671.500000000, A.D. 2022-Apr-02 00:00:00.0000, 3.001964330508344E+08, 1.292243377085692E+08, 9.350377117845900E+06,
2459678.500000000, A.D. 2022-Apr-09 00:00:00.0000, 2.946497315855391E+08, 1.407219989144108E+08, 1.061133684831755E+07,
2459685.500000000, A.D. 2022-Apr-16 00:00:00.0000, 2.886929633165697E+08, 1.520237097069725E+08, 1.185751901547863E+07,
2459692.500000000, A.D. 2022-Apr-23 00:00:00.0000, 2.823336330560374E+08, 1.631133307971243E+08, 1.308715683838354E+07,
2459699.500000000, A.D. 2022-Apr-30 00:00:00.0000, 2.755800175371840E+08, 1.739750621680379E+08, 1.429850834137585E+07,
2459706.500000000, A.D. 2022-May-07 00:00:00.0000, 2.684411451720926E+08, 1.845934871161739E+08, 1.548986130453111E+07,
2459713.500000000, A.D. 2022-May-14 00:00:00.0000, 2.609267744064623E+08, 1.949536153276893E+08, 1.665953796445036E+07,
2459720.500000000, A.D. 2022-May-21 00:00:00.0000, 2.530473687647410E+08, 2.050409254393851E+08, 1.780589967979310E+07,
2459727.500000000, A.D. 2022-May-28 00:00:00.0000, 2.448140682684445E+08, 2.148414058330397E+08, 1.892735149483921E+07,
2459734.500000000, A.D. 2022-Jun-04 00:00:00.0000, 2.362386576986482E+08, 2.243415930761994E+08, 2.002234651931842E+07,
2459741.500000000, A.D. 2022-Jun-11 00:00:00.0000, 2.273335320694028E+08, 2.335286077597721E+08, 2.108939008256552E+07,
2459748.500000000, A.D. 2022-Jun-18 00:00:00.0000, 2.181116595980930E+08, 2.423901875199207E+08, 2.212704363310649E+07,
2459755.500000000, A.D. 2022-Jun-25 00:00:00.0000, 2.085865424716763E+08, 2.509147170144912E+08, 2.313392835470095E+07,
2459762.500000000, A.D. 2022-Jul-02 00:00:00.0000, 1.987721758314298E+08, 2.590912546234767E+08, 2.410872846087275E+07,
2459769.500000000, A.D. 2022-Jul-09 00:00:00.0000, 1.886830056719614E+08, 2.669095559190831E+08, 2.505019412972444E+07,
2459776.500000000, A.D. 2022-Jul-16 00:00:00.0000, 1.783338859184934E+08, 2.743600948853904E+08, 2.595714415805751E+07,
2459783.500000000, A.D. 2022-Jul-23 00:00:00.0000, 1.677400328007494E+08, 2.814340828830460E+08, 2.682846852913073E+07,
2459790.500000000, A.D. 2022-Jul-30 00:00:00.0000, 1.569169769138039E+08, 2.881234819633915E+08, 2.766313060292991E+07,
2459797.500000000, A.D. 2022-Aug-06 00:00:00.0000, 1.458805168779125E+08, 2.944210131845456E+08, 2.846016864731316E+07,
2459804.500000000, A.D. 2022-Aug-13 00:00:00.0000, 1.346466740790559E+08, 3.003201627154213E+08, 2.921869700899109E+07,
2459811.500000000, A.D. 2022-Aug-20 00:00:00.0000, 1.232316472135771E+08, 3.058151852932663E+08, 2.993790703136818E+07,
2459818.500000000, A.D. 2022-Aug-27 00:00:00.0000, 1.116517669933328E+08, 3.109011044105027E+08, 3.061706766243315E+07,
2459825.500000000, A.D. 2022-Sep-03 00:00:00.0000, 9.992345153541245E+07, 3.155737092439154E+08, 3.125552573150133E+07,
2459832.500000000, A.D. 2022-Sep-10 00:00:00.0000, 8.806316278141388E+07, 3.198295484912980E+08, 3.185270590009956E+07,
2459839.500000000, A.D. 2022-Sep-17 00:00:00.0000, 7.608736420560415E+07, 3.236659212729673E+08, 3.240811029723318E+07,
2459846.500000000, A.D. 2022-Sep-24 00:00:00.0000, 6.401248007694808E+07, 3.270808652238753E+08, 3.292131784435220E+07,
2459853.500000000, A.D. 2022-Oct-01 00:00:00.0000, 5.185485669436967E+07, 3.300731419461384E+08, 3.339198326320778E+07,
2459860.500000000, A.D. 2022-Oct-08 00:00:00.0000, 3.963072615714307E+07, 3.326422205501001E+08, 3.381983579086760E+07,
2459867.500000000, A.D. 2022-Oct-15 00:00:00.0000, 2.735617187170666E+07, 3.347882606995872E+08, 3.420467780554879E+07,
2459874.500000000, A.D. 2022-Oct-22 00:00:00.0000, 1.504709372394679E+07, 3.365120936893707E+08, 3.454638344527103E+07,
2459881.500000000, A.D. 2022-Oct-29 00:00:00.0000, 2.719175490336593E+06, 3.378151991729571E+08, 3.484489679910842E+07,
2459888.500000000, A.D. 2022-Nov-05 00:00:00.0000, -9.612143357669275E+06, 3.386996805109994E+08, 3.510022972583663E+07,
2459895.500000000, A.D. 2022-Nov-12 00:00:00.0000, -2.193169337903679E+07, 3.391682402277423E+08, 3.531245960539393E+07,
2459902.500000000, A.D. 2022-Nov-19 00:00:00.0000, -3.422459912137684E+07, 3.392241548286559E+08, 3.548172703199683E+07,
2459909.500000000, A.D. 2022-Nov-26 00:00:00.0000, -4.647630105513090E+07, 3.388712487846135E+08, 3.560823341340764E+07,
2459916.500000000, A.D. 2022-Dec-03 00:00:00.0000, -5.867257534031925E+07, 3.381138678667585E+08, 3.569223848079900E+07,
2459923.500000000, A.D. 2022-Dec-10 00:00:00.0000, -7.079955141849716E+07, 3.369568520366275E+08, 3.573405772641438E+07,
2459930.500000000, A.D. 2022-Dec-17 00:00:00.0000, -8.284372745714040E+07, 3.354055080410948E+08, 3.573405978358009E+07,
2459937.500000000, A.D. 2022-Dec-24 00:00:00.0000, -9.479198360084356E+07, 3.334655818083140E+08, 3.569266375129792E+07,
2459944.500000000, A.D. 2022-Dec-31 00:00:00.0000, -1.066315927457569E+08, 3.311432309005503E+08, 3.561033645561463E+07,
2459951.500000000, A.D. 2023-Jan-07 00:00:00.0000, -1.183502287983362E+08, 3.284449981215369E+08, 3.548758972991675E+07,
2459958.500000000, A.D. 2023-Jan-14 00:00:00.0000, -1.299359744762290E+08, 3.253777868994334E+08, 3.532497794847485E+07,
2459965.500000000, A.D. 2023-Jan-21 00:00:00.0000, -1.413773293878159E+08, 3.219488353784133E+08, 3.512309562412235E+07,
2459972.500000000, A.D. 2023-Jan-28 00:00:00.0000, -1.526632148248676E+08, 3.181656891074368E+08, 3.488257472771639E+07,
2459979.500000000, A.D. 2023-Feb-04 00:00:00.0000, -1.637829755914003E+08, 3.140361754396322E+08, 3.460408200717799E+07,
2459986.500000000, A.D. 2023-Feb-11 00:00:00.0000, -1.747263807727212E+08, 3.095683795287669E+08, 3.428831646521871E+07,
2459993.500000000, A.D. 2023-Feb-18 00:00:00.0000, -1.854836236136233E+08, 3.047706211628474E+08, 3.393600694296655E+07,
2460000.500000000, A.D. 2023-Feb-25 00:00:00.0000, -1.960453203484827E+08, 2.996514323247260E+08, 3.354790977968876E+07,
2460007.500000000, A.D. 2023-Mar-04 00:00:00.0000, -2.064025079844983E+08, 2.942195355401996E+08, 3.312480654690607E+07,
2460014.500000000, A.D. 2023-Mar-11 00:00:00.0000, -2.165466411101603E+08, 2.884838230454855E+08, 3.266750185905690E+07,
2460021.500000000, A.D. 2023-Mar-18 00:00:00.0000, -2.264695877798437E+08, 2.824533367463995E+08, 3.217682125592777E+07,
2460028.500000000, A.D. 2023-Mar-25 00:00:00.0000, -2.361636243661512E+08, 2.761372489354377E+08, 3.165360913700214E+07,
2460035.500000000, A.D. 2023-Apr-01 00:00:00.0000, -2.456214290469868E+08, 2.695448441663340E+08, 3.109872674282473E+07,
2460042.500000000, A.D. 2023-Apr-08 00:00:00.0000, -2.548360746310512E+08, 2.626855035117329E+08, 3.051305034114943E+07,
2460049.500000000, A.D. 2023-Apr-15 00:00:00.0000, -2.638010231423119E+08, 2.555686900960458E+08, 2.989746974230874E+07,
2460056.500000000, A.D. 2023-Apr-22 00:00:00.0000, -2.725101204248974E+08, 2.482039328427513E+08, 2.925288672760828E+07,
2460063.500000000, A.D. 2023-Apr-29 00:00:00.0000, -2.809575880963423E+08, 2.406008106640575E+08, 2.858021332214008E+07,
2460070.500000000, A.D. 2023-May-06 00:00:00.0000, -2.891380146794055E+08, 2.327689388459044E+08, 2.788037021760672E+07,
2460077.500000000, A.D. 2023-May-13 00:00:00.0000, -2.970463469586017E+08, 2.247179567108887E+08, 2.715428536071597E+07,
2460084.500000000, A.D. 2023-May-20 00:00:00.0000, -3.046778813912365E+08, 2.164575160436426E+08, 2.640289264444576E+07,
2460091.500000000, A.D. 2023-May-27 00:00:00.0000, -3.120282554382719E+08, 2.079972702250643E+08, 2.562713068049558E+07,
2460098.500000000, A.D. 2023-Jun-03 00:00:00.0000, -3.190934388091217E+08, 1.993468640765955E+08, 2.482794164747271E+07,
2460105.500000000, A.D. 2023-Jun-10 00:00:00.0000, -3.258697246412068E+08, 1.905159243731298E+08, 2.400627020853970E+07,
2460112.500000000, A.D. 2023-Jun-17 00:00:00.0000, -3.323537205645336E+08, 1.815140509336029E+08, 2.316306248214271E+07,
2460119.500000000, A.D. 2023-Jun-24 00:00:00.0000, -3.385423393666422E+08, 1.723508083118834E+08, 2.229926503763948E+07,
2460126.500000000, A.D. 2023-Jul-01 00:00:00.0000, -3.444327890368417E+08, 1.630357188818240E+08, 2.141582395694717E+07,
2460133.500000000, A.D. 2023-Jul-08 00:00:00.0000, -3.500225638941861E+08, 1.535782581039999E+08, 2.051368417966635E+07,
2460140.500000000, A.D. 2023-Jul-15 00:00:00.0000, -3.553094381057997E+08, 1.439878491123806E+08, 1.959378901437367E+07,
2460147.500000000, A.D. 2023-Jul-22 00:00:00.0000, -3.602914580968388E+08, 1.342738555568522E+08, 1.865707940548053E+07,
$$EOE